OBJECT_NAME,OBJECT_ID,EPOCH,MEAN_MOTION,ECCENTRICITY,INCLINATION,RA_OF_ASC_NODE,ARG_OF_PERICENTER,MEAN_ANOMALY,EPHEMERIS_TYPE,CLASSIFICATION_TYPE,NORAD_CAT_ID,ELEMENT_SET_NO,REV_AT_EPOCH,BSTAR,MEAN_MOTION_DOT,MEAN_MOTION_DDOT
IONOSFERA-M 2,2024-199B,2026-07-02T15:06:21.369600,14.22760547,.00004111,98.7151,56.5477,52.0809,308.0406,0,U,61736,999,13302,.527579E-4,.74E-6,0
PRSC-EO1,2025-012A,2026-07-02T14:52:42.921408,15.17641897,.00057681,97.4219,255.7781,189.5617,170.5508,0,U,62725,999,8053,.39899185E-3,.7969E-4,0
BIOMASS,2025-090A,2026-07-02T12:19:19.503552,14.67349932,.00007697,98.0781,10.6002,156.0435,204.0806,0,U,63772,999,6293,.22150081E-3,.1203E-4,0
GOSAT-GW (IBUKI GW),2025-141A,2026-07-02T14:22:47.422272,14.67554165,.00014366,98.0568,120.6658,85.4025,274.7343,0,U,64694,999,5410,.14906459E-4,.37E-6,0
IONOSFERA-M 3,2025-155A,2026-07-02T14:10:23.826720,14.21489128,.00018226,98.6033,145.1083,131.1407,228.9928,0,U,64876,999,4859,.52941477E-4,.73E-6,0
IONOSFERA-M 4,2025-155B,2026-07-02T15:00:31.887648,14.21491408,.00015537,98.6031,145.0595,111.4825,248.6518,0,U,64877,999,4859,.43970957E-4,.53E-6,0
MICROCARB,2025-156A,2026-07-02T02:22:57.703008,14.72859248,.00165406,97.9957,259.9846,213.2910,146.7259,0,U,64899,999,5016,.10025664E-3,.593E-5,0
CO3D 3,2025-156B,2026-07-02T14:09:50.394240,15.20191849,.00018197,97.4333,262.0618,108.6922,251.4510,0,U,64900,999,5187,.22746961E-3,.4858E-4,0
CO3D 4,2025-156C,2026-07-02T14:10:03.075168,15.20216320,.00009319,97.4333,262.0617,177.2237,182.9003,0,U,64901,999,5187,.11521954E-3,.2428E-4,0
CO3D 2,2025-156D,2026-07-02T11:47:15.120672,15.20215277,.00014457,97.4333,261.8629,95.7773,264.3627,0,U,64902,999,5185,.23838054E-3,.5098E-4,0
CO3D 1,2025-156E,2026-07-02T13:22:15.911040,15.20196387,.00013273,97.4332,261.9281,102.2003,257.9381,0,U,64903,999,5186,.23600457E-3,.5044E-4,0
PRSC-S1,2025-164A,2026-07-02T12:16:52.994208,15.06563929,.00050349,41.1287,201.4967,102.9057,257.2320,0,U,65055,999,5074,.24627237E-3,.3533E-4,0
SENTINEL-6B,2025-264A,2026-07-02T03:42:27.702720,12.80929982,.00079193,66.0412,104.0922,268.9345,91.0763,0,U,66514,999,2908,.58380963E-4,-.48E-6,0
CAS500-3,2025-274F,2026-07-02T13:03:02.830464,14.88359241,.00068911,97.7442,111.2455,70.9984,289.1979,0,U,66655,999,3243,.17034353E-3,.1524E-4,0
CSG-3,2026-001A,2026-07-02T10:57:11.376288,14.82164507,.00015112,97.8889,6.8372,96.0310,264.1075,0,U,67304,999,2672,.53464876E-4,.373E-5,0
PRSC-E03,2026-092A,2026-07-02T11:56:22.505280,15.06753757,.00033539,38.0021,359.3945,163.3202,196.7670,0,U,68835,999,1026,.25339955E-3,.3735E-4,0
CAS500-2,2026-100AK,2026-07-02T06:52:53.176512,15.20770055,.00089914,97.3884,80.8617,344.1271,15.9682,0,U,69013,999,910,.34122008E-3,.7457E-4,0
