IONOSFERA-M 2           
1 61736U 24199B   26183.62941400  .00000074  00000+0  52758-4 0  9995
2 61736  98.7151  56.5477 0000411  52.0809 308.0406 14.22760547133028
PRSC-EO1                
1 62725U 25012A   26183.61994122  .00007969  00000+0  39899-3 0  9997
2 62725  97.4219 255.7781 0005768 189.5617 170.5508 15.17641897 80535
BIOMASS                 
1 63772U 25090A   26183.51342018  .00001203  00000+0  22150-3 0  9993
2 63772  98.0781  10.6002 0000769 156.0435 204.0806 14.67349932 62933
GOSAT-GW (IBUKI GW)     
1 64694U 25141A   26183.59915998  .00000037  00000+0  14906-4 0  9990
2 64694  98.0568 120.6658 0001436  85.4025 274.7343 14.67554165 54107
IONOSFERA-M 3           
1 64876U 25155A   26183.59055355  .00000073  00000+0  52941-4 0  9990
2 64876  98.6033 145.1083 0001822 131.1407 228.9928 14.21489128 48590
IONOSFERA-M 4           
1 64877U 25155B   26183.62536907  .00000053  00000+0  43971-4 0  9993
2 64877  98.6031 145.0595 0001553 111.4825 248.6518 14.21491408 48590
MICROCARB               
1 64899U 25156A   26183.09927897  .00000593  00000+0  10026-3 0  9994
2 64899  97.9957 259.9846 0016540 213.2910 146.7259 14.72859248 50167
CO3D 3                  
1 64900U 25156B   26183.59016660  .00004858  00000+0  22747-3 0  9990
2 64900  97.4333 262.0618 0001819 108.6922 251.4510 15.20191849 51871
CO3D 4                  
1 64901U 25156C   26183.59031337  .00002428  00000+0  11522-3 0  9999
2 64901  97.4333 262.0617 0000931 177.2237 182.9003 15.20216320 51873
CO3D 2                  
1 64902U 25156D   26183.49114723  .00005098  00000+0  23838-3 0  9999
2 64902  97.4333 261.8629 0001445  95.7773 264.3627 15.20215277 51859
CO3D 1                  
1 64903U 25156E   26183.55712860  .00005044  00000+0  23600-3 0  9991
2 64903  97.4332 261.9281 0001327 102.2003 257.9381 15.20196387 51869
PRSC-S1                 
1 65055U 25164A   26183.51172447  .00003533  00000+0  24627-3 0  9997
2 65055  41.1287 201.4967 0005034 102.9057 257.2320 15.06563929 50744
SENTINEL-6B             
1 66514U 25264A   26183.15448730 -.00000048  00000+0  58381-4 0  9994
2 66514  66.0412 104.0922 0007919 268.9345  91.0763 12.80929982 29089
CAS500-3                
1 66655U 25274F   26183.54378276  .00001524  00000+0  17034-3 0  9999
2 66655  97.7442 111.2455 0006891  70.9984 289.1979 14.88359241 32435
CSG-3                   
1 67304U 26001A   26183.45638167  .00000373  00000+0  53465-4 0  9998
2 67304  97.8889   6.8372 0001511  96.0310 264.1075 14.82164507 26724
PRSC-E03                
1 68835U 26092A   26183.49748270  .00003735  00000+0  25340-3 0  9994
2 68835  38.0021 359.3945 0003353 163.3202 196.7670 15.06753757 10266
CAS500-2                
1 69013U 26100AK  26183.28672658  .00007457  00000+0  34122-3 0  9999
2 69013  97.3884  80.8617 0008991 344.1271  15.9682 15.20770055  9102
